start=new Date('2022-10-09T00:00:00.000Z').valueOf();
sats=[{"TLE_LINE1":"1 48586U 21041AK  22281.82144061 -.00001321  00000-0 -69846-4 0  9996","MEAN_MOTION":"15.06393282","PERIOD":"95.593","ELEMENT_SET_NO":"999","CLASSIFICATION_TYPE":"U","APOAPSIS":"548.236","MEAN_ELEMENT_THEORY":"SGP4","EPOCH":"2022-10-08T19:42:52.468704","ECCENTRICITY":"0.00014470","LAUNCH_DATE":"2021-05-15","OBJECT_ID":"2021-041AK","CENTER_NAME":"EARTH","MEAN_ANOMALY":"297.6105","RCS_SIZE":"LARGE","MEAN_MOTION_DDOT":"0.0000000000000","REF_FRAME":"TEME","REV_AT_EPOCH":"7697","SEMIMAJOR_AXIS":"6925.369","FILE":"3596607","INCLINATION":"53.0558","OBJECT_TYPE":"PAYLOAD","DECAY_DATE":null,"COUNTRY_CODE":"US","ARG_OF_PERICENTER":"62.5031","MEAN_MOTION_DOT":"-0.00001321","EPHEMERIS_TYPE":"0","RA_OF_ASC_NODE":"343.5187","OBJECT_NAME":"STARLINK-2241","NORAD_CAT_ID":"48586","TLE_LINE2":"2 48586  53.0558 343.5187 0001447  62.5031 297.6105 15.06393282 76971","SITE":"AFETR","PERIAPSIS":"546.232","BSTAR":"-0.00006984600000","TIME_SYSTEM":"UTC","GP_ID":"214506060"},{"INCLINATION":"53.0542","OBJECT_TYPE":"PAYLOAD","DECAY_DATE":null,"ARG_OF_PERICENTER":"42.1672","COUNTRY_CODE":"US","MEAN_MOTION_DOT":"-0.00000049","EPHEMERIS_TYPE":"0","RA_OF_ASC_NODE":"345.2984","OBJECT_NAME":"STARLINK-2242","NORAD_CAT_ID":"48587","TLE_LINE2":"2 48587  53.0542 345.2984 0001955  42.1672 317.9467 15.06388739 76910","SITE":"AFETR","PERIAPSIS":"545.894","TIME_SYSTEM":"UTC","BSTAR":"0.00001561100000","GP_ID":"214473864","TLE_LINE1":"1 48587U 21041AL  22281.42704820 -.00000049  00000-0  15611-4 0  9994","MEAN_MOTION":"15.06388739","ELEMENT_SET_NO":"999","PERIOD":"95.593","APOAPSIS":"548.602","CLASSIFICATION_TYPE":"U","MEAN_ELEMENT_THEORY":"SGP4","EPOCH":"2022-10-08T10:14:56.964480","ECCENTRICITY":"0.00019550","LAUNCH_DATE":"2021-05-15","OBJECT_ID":"2021-041AL","CENTER_NAME":"EARTH","MEAN_ANOMALY":"317.9467","RCS_SIZE":"LARGE","REF_FRAME":"TEME","MEAN_MOTION_DDOT":"0.0000000000000","SEMIMAJOR_AXIS":"6925.383","REV_AT_EPOCH":"7691","FILE":"3596390"},{"NORAD_CAT_ID":"48588","TLE_LINE2":"2 48588  53.0562 335.0923 0001543  66.7184 293.3968 15.06394640 77064","SITE":"AFETR","PERIAPSIS":"546.161","TIME_SYSTEM":"UTC","BSTAR":"0.00006113600000","GP_ID":"214475114","INCLINATION":"53.0562","OBJECT_TYPE":"PAYLOAD","DECAY_DATE":null,"MEAN_MOTION_DOT":"0.00000629","COUNTRY_CODE":"US","ARG_OF_PERICENTER":"66.7184","EPHEMERIS_TYPE":"0","RA_OF_ASC_NODE":"335.0923","OBJECT_NAME":"STARLINK-2244","ECCENTRICITY":"0.00015430","LAUNCH_DATE":"2021-05-15","CENTER_NAME":"EARTH","OBJECT_ID":"2021-041AM","MEAN_ANOMALY":"293.3968","RCS_SIZE":"LARGE","MEAN_MOTION_DDOT":"0.0000000000000","REF_FRAME":"TEME","REV_AT_EPOCH":"7706","SEMIMAJOR_AXIS":"6925.365","FILE":"3596390","TLE_LINE1":"1 48588U 21041AM  22281.47220321  .00000629  00000-0  61136-4 0  9995","MEAN_MOTION":"15.06394640","ELEMENT_SET_NO":"999","PERIOD":"95.592","CLASSIFICATION_TYPE":"U","APOAPSIS":"548.299","MEAN_ELEMENT_THEORY":"SGP4","EPOCH":"2022-10-08T11:19:58.357344"},{"COUNTRY_CODE":"US","ARG_OF_PERICENTER":"50.2070","MEAN_MOTION_DOT":"0.00002759","OBJECT_TYPE":"PAYLOAD","DECAY_DATE":null,"INCLINATION":"53.0539","OBJECT_NAME":"STARLINK-2245","RA_OF_ASC_NODE":"335.1091","EPHEMERIS_TYPE":"0","PERIAPSIS":"545.899","SITE":"AFETR","TLE_LINE2":"2 48589  53.0539 335.1091 0001907  50.2070 309.9087 15.06398126 77061","NORAD_CAT_ID":"48589","GP_ID":"214475358","TIME_SYSTEM":"UTC","BSTAR":"0.00020407000000","PERIOD":"95.592","ELEMENT_SET_NO":"999","MEAN_MOTION":"15.06398126","TLE_LINE1":"1 48589U 21041AN  22281.46851395  .00002759  00000-0  20407-3 0  9997","EPOCH":"2022-10-08T11:14:39.605280","MEAN_ELEMENT_THEORY":"SGP4","APOAPSIS":"548.540","CLASSIFICATION_TYPE":"U","RCS_SIZE":"LARGE","CENTER_NAME":"EARTH","OBJECT_ID":"2021-041AN","MEAN_ANOMALY":"309.9087","LAUNCH_DATE":"2021-05-15","ECCENTRICITY":"0.00019070","FILE":"3596390","SEMIMAJOR_AXIS":"6925.354","REV_AT_EPOCH":"7706","REF_FRAME":"TEME","MEAN_MOTION_DDOT":"0.0000000000000"},{"ELEMENT_SET_NO":"999","PERIOD":"95.592","TLE_LINE1":"1 48591U 21041AQ  22281.71821539  .00021988  00000-0  14902-2 0  9992","MEAN_MOTION":"15.06405382","MEAN_ELEMENT_THEORY":"SGP4","EPOCH":"2022-10-08T17:14:13.809696","CLASSIFICATION_TYPE":"U","APOAPSIS":"548.486","OBJECT_ID":"2021-041AQ","MEAN_ANOMALY":"304.5913","CENTER_NAME":"EARTH","RCS_SIZE":"LARGE","ECCENTRICITY":"0.00018610","LAUNCH_DATE":"2021-05-15","FILE":"3596607","MEAN_MOTION_DDOT":"0.0000000000000","REF_FRAME":"TEME","REV_AT_EPOCH":"7800","SEMIMAJOR_AXIS":"6925.332","OBJECT_TYPE":"PAYLOAD","DECAY_DATE":null,"COUNTRY_CODE":"US","ARG_OF_PERICENTER":"55.5251","MEAN_MOTION_DOT":"0.00021988","INCLINATION":"53.0534","RA_OF_ASC_NODE":"333.9960","OBJECT_NAME":"STARLINK-2248","EPHEMERIS_TYPE":"0","SITE":"AFETR","PERIAPSIS":"545.908","NORAD_CAT_ID":"48591","TLE_LINE2":"2 48591  53.0534 333.9960 0001861  55.5251 304.5913 15.06405382 78005","BSTAR":"0.00149020000000","TIME_SYSTEM":"UTC","GP_ID":"214505561"},{"MEAN_MOTION_DDOT":"0.0000000000000","REF_FRAME":"TEME","REV_AT_EPOCH":"7692","SEMIMAJOR_AXIS":"6925.369","FILE":"3596390","ECCENTRICITY":"0.00014860","LAUNCH_DATE":"2021-05-15","CENTER_NAME":"EARTH","OBJECT_ID":"2021-041AR","MEAN_ANOMALY":"306.1347","RCS_SIZE":"MEDIUM","CLASSIFICATION_TYPE":"U","APOAPSIS":"548.263","MEAN_ELEMENT_THEORY":"SGP4","EPOCH":"2022-10-08T11:06:40.431744","TLE_LINE1":"1 48592U 21041AR  22281.46296796  .00000601  00000-0  59257-4 0  9999","MEAN_MOTION":"15.06393275","PERIOD":"95.593","ELEMENT_SET_NO":"999","BSTAR":"0.00005925700000","TIME_SYSTEM":"UTC","GP_ID":"214474364","NORAD_CAT_ID":"48592","TLE_LINE2":"2 48592  53.0571 345.1654 0001486  53.9780 306.1347 15.06393275 76929","SITE":"AFETR","PERIAPSIS":"546.205","EPHEMERIS_TYPE":"0","RA_OF_ASC_NODE":"345.1654","OBJECT_NAME":"STARLINK-2249","INCLINATION":"53.0571","OBJECT_TYPE":"PAYLOAD","DECAY_DATE":null,"COUNTRY_CODE":"US","MEAN_MOTION_DOT":"0.00000601","ARG_OF_PERICENTER":"53.9780"},{"BSTAR":"0.00009570600000","TIME_SYSTEM":"UTC","GP_ID":"214482457","SITE":"AFETR","PERIAPSIS":"546.032","NORAD_CAT_ID":"48593","TLE_LINE2":"2 48593  53.0555 345.1158 0001746  46.7113 313.4022 15.06391110 77221","RA_OF_ASC_NODE":"345.1158","OBJECT_NAME":"STARLINK-2250","EPHEMERIS_TYPE":"0","OBJECT_TYPE":"PAYLOAD","DECAY_DATE":null,"ARG_OF_PERICENTER":"46.7113","COUNTRY_CODE":"US","MEAN_MOTION_DOT":"0.00001144","INCLINATION":"53.0555","FILE":"3596551","REF_FRAME":"TEME","MEAN_MOTION_DDOT":"0.0000000000000","SEMIMAJOR_AXIS":"6925.376","REV_AT_EPOCH":"7722","OBJECT_ID":"2021-041AS","MEAN_ANOMALY":"313.4022","CENTER_NAME":"EARTH","RCS_SIZE":"LARGE","ECCENTRICITY":"0.00017460","LAUNCH_DATE":"2021-05-15","MEAN_ELEMENT_THEORY":"SGP4","EPOCH":"2022-10-08T11:13:20.280576","APOAPSIS":"548.450","CLASSIFICATION_TYPE":"U","PERIOD":"95.593","ELEMENT_SET_NO":"999","TLE_LINE1":"1 48593U 21041AS  22281.46759584  .00001144  00000-0  95706-4 0  9991","MEAN_MOTION":"15.06391110"},{"TLE_LINE1":"1 48594U 21041AT  22281.82790537  .00002076  00000-0  15823-3 0  9991","MEAN_MOTION":"15.06396892","PERIOD":"95.592","ELEMENT_SET_NO":"999","APOAPSIS":"548.426","CLASSIFICATION_TYPE":"U","MEAN_ELEMENT_THEORY":"SGP4","EPOCH":"2022-10-08T19:52:11.023968","ECCENTRICITY":"0.00017370","LAUNCH_DATE":"2021-05-15","CENTER_NAME":"EARTH","OBJECT_ID":"2021-041AT","MEAN_ANOMALY":"299.2559","RCS_SIZE":"LARGE","REF_FRAME":"TEME","MEAN_MOTION_DDOT":"0.0000000000000","SEMIMAJOR_AXIS":"6925.358","REV_AT_EPOCH":"7740","FILE":"3596607","INCLINATION":"53.0563","OBJECT_TYPE":"PAYLOAD","DECAY_DATE":null,"COUNTRY_CODE":"US","MEAN_MOTION_DOT":"0.00002076","ARG_OF_PERICENTER":"60.8604","EPHEMERIS_TYPE":"0","RA_OF_ASC_NODE":"313.5802","OBJECT_NAME":"STARLINK-2251","NORAD_CAT_ID":"48594","TLE_LINE2":"2 48594  53.0563 313.5802 0001737  60.8604 299.2559 15.06396892 77406","SITE":"AFETR","PERIAPSIS":"546.020","TIME_SYSTEM":"UTC","BSTAR":"0.00015823000000","GP_ID":"214505311"},{"RA_OF_ASC_NODE":"344.6005","OBJECT_NAME":"STARLINK-2252","EPHEMERIS_TYPE":"0","OBJECT_TYPE":"PAYLOAD","DECAY_DATE":null,"COUNTRY_CODE":"US","MEAN_MOTION_DOT":"0.00001965","ARG_OF_PERICENTER":"56.6777","INCLINATION":"53.0560","BSTAR":"0.00015077000000","TIME_SYSTEM":"UTC","GP_ID":"214506061","SITE":"AFETR","PERIAPSIS":"546.006","NORAD_CAT_ID":"48595","TLE_LINE2":"2 48595  53.0560 344.6005 0001761  56.6777 303.4381 15.06396136 78217","MEAN_ELEMENT_THEORY":"SGP4","EPOCH":"2022-10-08T13:57:52.485408","APOAPSIS":"548.445","CLASSIFICATION_TYPE":"U","PERIOD":"95.592","ELEMENT_SET_NO":"999","TLE_LINE1":"1 48595U 21041AU  22281.58185747  .00001965  00000-0  15077-3 0  9993","MEAN_MOTION":"15.06396136","FILE":"3596607","REF_FRAME":"TEME","MEAN_MOTION_DDOT":"0.0000000000000","SEMIMAJOR_AXIS":"6925.360","REV_AT_EPOCH":"7821","CENTER_NAME":"EARTH","OBJECT_ID":"2021-041AU","MEAN_ANOMALY":"303.4381","RCS_SIZE":"LARGE","ECCENTRICITY":"0.00017610","LAUNCH_DATE":"2021-05-15"},{"INCLINATION":"53.0560","MEAN_MOTION_DOT":"-0.00000608","COUNTRY_CODE":"US","ARG_OF_PERICENTER":"72.0760","OBJECT_TYPE":"PAYLOAD","DECAY_DATE":null,"EPHEMERIS_TYPE":"0","OBJECT_NAME":"STARLINK-2253","RA_OF_ASC_NODE":"345.3920","TLE_LINE2":"2 48596  53.0560 345.3920 0001472  72.0760 288.0389 15.06392641 77374","NORAD_CAT_ID":"48596","PERIAPSIS":"546.217","SITE":"AFETR","GP_ID":"214482470","BSTAR":"-0.00002193100000","TIME_SYSTEM":"UTC","MEAN_MOTION":"15.06392641","TLE_LINE1":"1 48596U 21041AV  22281.40493286 -.00000608  00000-0 -21931-4 0  9997","ELEMENT_SET_NO":"999","PERIOD":"95.593","CLASSIFICATION_TYPE":"U","APOAPSIS":"548.256","EPOCH":"2022-10-08T09:43:06.199104","MEAN_ELEMENT_THEORY":"SGP4","LAUNCH_DATE":"2021-05-15","ECCENTRICITY":"0.00014720","RCS_SIZE":"LARGE","OBJECT_ID":"2021-041AV","MEAN_ANOMALY":"288.0389","CENTER_NAME":"EARTH","REV_AT_EPOCH":"7737","SEMIMAJOR_AXIS":"6925.371","MEAN_MOTION_DDOT":"0.0000000000000","REF_FRAME":"TEME","FILE":"3596548"}];
